UNKNOWN                 
1 82112U          22017.21621880  .00003606  00000+0  99093-3 0  9991
2 82112  98.6494 119.1876 0098966 315.2633  44.0605 14.44782292375221
UNKNOWN                 
1 82139U          22018.05695839  .00000957  00000+0  58393-3 0  9992
2 82139  99.1318  57.0536 0093159  78.3244 282.8360 14.06315265279333
UNKNOWN                 
1 82162U          22018.31954880  .00001762  00000+0  31623-2 0  9992
2 82162 100.3938 228.4630 0050063  50.7851 309.7706 13.42726634312512
UNKNOWN                 
1 82168U          22018.51615561  .00008442  00000+0  12360-2 0  9999
2 82168  74.0102  72.4392 0002795 160.0372 200.0911 14.75760276278982
UNKNOWN                 
1 82180U          22017.87208216  .00005447  00000+0  11671-2 0  9992
2 82180  65.6607 186.6715 0481307 207.1577 150.3574 14.05984904398893
UNKNOWN                 
1 82187U          22017.67301315  .00010932  00000+0  19888-2 0  9994
2 82187  70.9426 139.2706 0066398 210.8811 148.8426 14.64840243433950
UNKNOWN                 
1 82189U          22017.01639795  .00000134  00000+0  57504-4 0  9992
2 82189  74.0351 138.6885 0017681 313.4770  46.4910 14.33684405428003
UNKNOWN                 
1 82199U          22017.32498498  .00000328  00000+0  28151-3 0  9990
2 82199  82.9661 223.2890 0037645 119.3524  55.4242 13.83623413412440
UNKNOWN                 
1 82205U          22018.45305333  .00001641  00000+0  35666-3 0  9996
2 82205  62.9972 287.7313 0634855 154.4578 208.9332 13.80043019410528
UNKNOWN                 
1 82223U          22015.27825210  .00001076  00000+0  70388-3 0  9996
2 82223  99.3901 194.4055 0075235 327.8404  31.8183 14.03189210248072
UNKNOWN                 
1 82227U          22018.42651956  .00000005  00000+0  35968-3 0  9990
2 82227 101.8588 353.2636 0001917 267.0886 244.9936 12.41993590464337
UNKNOWN                 
1 82250U          22018.22573295  .00001112  00000+0  74900-3 0  9992
2 82250  98.9545 287.0849 0084244 217.9075 296.2255 14.00947403416420
UNKNOWN                 
1 82268U          22015.53718962  .00001826  00000+0  96188-3 0  9998
2 82268  99.1335 115.8580 0055451  50.4209  16.3961 14.14506036533418
UNKNOWN                 
1 82272U          22015.36909668 -.00000129  00000+0 -25369-3 0  9999
2 82272  67.5258 262.3278 0759714 298.8333  53.8447 12.32059403 96000
UNKNOWN                 
1 82284U          22018.38376596  .00003927  00000+0  15248-2 0  9996
2 82284  99.5563 176.4554 0107915 213.9048 145.5200 14.27394419467520
UNKNOWN                 
1 82285U          22018.58824628  .00002311  00000+0  23002-2 0  9996
2 82285 101.9978 141.0058 0358389 210.4469 147.5406 13.54600718401910
UNKNOWN                 
1 82295U          22018.11077447  .00000320  00000+0  15627-3 0  9998
2 82295  66.6228 276.1942 0127937 148.3878 212.4985 14.25833619376297
UNKNOWN                 
1 82298U          22018.46099393  .00002285  00000+0  11961-2 0  9991
2 82298  99.0619 109.6351 0061853  54.9610 305.7344 14.14364937363682
UNKNOWN                 
1 82303U          22018.48638058  .00012390  00000+0  27353-1 0  9996
2 82303  81.9648  74.7199 0048929 180.3280 244.6949 13.27421882322367
UNKNOWN                 
1 82311U          22017.73086146  .00000496  00000+0  78954-3 0  9996
2 82311  99.5102 116.5695 0111213 289.0281  69.8834 13.52017375357596
UNKNOWN                 
1 82314U          22017.25383555  .00027041  00000+0  11316-2 0  9993
2 82314  99.2098 132.8721 0193971 200.9762 158.3426 15.08044734326834
UNKNOWN                 
1 82320U          22016.30463276  .00001319  00000+0  48451-3 0  9995
2 82320  99.8456  53.3932 0159791 351.8346   8.0235 14.27986136424257
UNKNOWN                 
1 82322U          22016.93055004  .00004459  00000+0  10706-2 0  9991
2 82322  98.5778  89.5191 0080167 131.3939 229.4184 14.51967748357273
UNKNOWN                 
1 82363U          22016.21936745  .00000238  00000+0  47500-3 0  9991
2 82363  66.9388   3.5249 0463843 354.2558   5.3265 13.13840467102750
UNKNOWN                 
1 82369U 99025    22018.02764977  .00000205  00000+0  17329-3 0  9999
2 82369  99.0279  52.5205 0083431 305.0284  54.3071 13.97050546358170
UNKNOWN                 
1 82381U          22018.49575712  .00002423  00000+0  79276-3 0  9999
2 82381  98.4859 216.1989 0017188 185.3671 174.7335 14.39314727303950
UNKNOWN                 
1 82383U          22018.40425502  .00009574  00000+0  13140-2 0  9994
2 82383  98.2830  71.9351 0007100 168.9800 191.1567 14.78592845335804
UNKNOWN                 
1 82402U          22017.50261942  .00001179  00000+0  13324-3 0  9990
2 82402  86.6676  40.1306 0009008 232.2303 127.8107 14.85578688241916
UNKNOWN                 
1 82410U          22014.67751687  .00000039  00000+0  11538-3 0  9993
2 82410  66.6567 162.9667 0068568 256.8181 102.5232 13.76100051390173
UNKNOWN                 
1 82428U          22018.54737084  .00011189  00000+0  98581-2 0  9997
2 82428  63.1763 165.0055 0122731  42.7117 318.3386 13.82198908222649
UNKNOWN                 
1 82432U 93036    22017.37986342  .00000628  00000+0  16333-3 0  9998
2 82432  74.0092 158.4805 0064720 308.7755  50.7633 14.50611212275762
UNKNOWN                 
1 82448U          22018.56322638  .00001150  00000+0  12988-3 0  9991
2 82448  85.8778 226.5948 0008958 295.9496  64.0804 14.85533578224639
UNKNOWN                 
1 82451U          22009.44607813  .00007648  00000+0  84313-3 0  9992
2 82451  66.5365  70.6251 0272976 106.8421 256.2822 14.64555515921807
UNKNOWN                 
1 82453U          22018.57376954 -.00000036  00000+0  68434-4 0  9999
2 82453 101.9765 331.9696 0094497 325.1166  34.3729 12.39531571369594
UNKNOWN                 
1 82458U          22018.35926352  .00000679  00000+0  42479-3 0  9995
2 82458  66.5106 246.3609 0068567 247.3501 112.0324 14.09641957408514
UNKNOWN                 
1 82464U          22018.32272087  .00003207  00000+0  93738-3 0  9992
2 82464  71.0010 342.2012 0084805 184.6124 249.2474 14.42686885427928
UNKNOWN                 
1 82475U          22017.86518228  .00000654  00000+0  41231-3 0  9996
2 82475  99.1339  58.7923 0107438 111.2555 250.0126 14.04998379345663
UNKNOWN                 
1 82481U          22013.60541083  .00045002  00000+0  19508-2 0  9993
2 82481  99.0102 312.9569 0021731 304.7546  55.1639 15.22016390242358
UNKNOWN                 
1 82484U          22016.89318290 -.00000057  00000+0 -20542-4 0  9997
2 82484  99.5312  84.5423 0044992 196.0971 163.8740 13.55113606397474
UNKNOWN                 
1 82494U 93036    22018.32344829  .00001468  00000+0  38751-3 0  9991
2 82494  74.0200 231.8690 0011179 349.7099  10.3831 14.49794155275505
UNKNOWN                 
1 82500U          22018.54693360  .00001217  00000+0  72856-3 0  9995
2 82500  70.9728  96.2384 0137284  95.6982 265.9806 14.04418166418189
UNKNOWN                 
1 82517U          22018.57999738  .00004661  00000+0  13697-2 0  9997
2 82517  86.3894 330.2229 0020949 275.7755  84.1057 14.43478219217408
UNKNOWN                 
1 82524U          22018.15077181  .00000855  00000+0  39291-3 0  9998
2 82524  73.2919 339.1881 0176175 166.2959 208.0181 14.15062773374439
UNKNOWN                 
1 82526U          21357.35692412  .00001274  00000+0  83782-3 0  9997
2 82526  99.2360  37.7135 0103843  10.8085 349.5278 14.01186731318205
UNKNOWN                 
1 82529U          22017.11510615 -.00000175  00000+0 -21167-3 0  9992
2 82529  99.7839 131.8554 0244968 108.5455  17.0656 13.38523896398846
UNKNOWN                 
1 82545U          22018.08477067 -.00000072  00000+0 -78410-3 0  9999
2 82545  64.8864 322.0215 0180280 208.1881 150.9193 11.30779110277828
UNKNOWN                 
1 82560U          22018.24815557  .00000556  00000+0  53056-3 0  9998
2 82560 100.0399 204.9309 0009557  86.8936  91.0255 13.85576242414293
UNKNOWN                 
1 82561U          22018.62086329  .00004172  00000+0  13164-2 0  9991
2 82561  63.1196 321.3989 0494185 355.7000 182.1754 13.88897357413067
UNKNOWN                 
1 82576U          22014.30092486  .00001218  00000+0  81636-3 0  9997
2 82576  99.2587  47.5427 0114323 340.3981  19.2805 13.99717980 33837
UNKNOWN                 
1 82597U          22018.42062149  .00000492  00000+0  21586-3 0  9991
2 82597  66.7731 271.9495 0109832 284.3310  74.5614 14.28483096425120
UNKNOWN                 
1 82616U          22018.48604612  .00010379  00000+0  12757-2 0  9990
2 82616  97.3021 103.2967 0092582 325.9647  33.5650 14.80150262354718
UNKNOWN                 
1 82617U          22018.43000212  .00000290  00000+0  87768-4 0  9999
2 82617  74.0286  29.3004 0041758 322.3771  37.4467 14.46330270430728
UNKNOWN                 
1 82627U          22018.42084215  .00000351  00000+0  92251-3 0  9994
2 82627  82.4783 181.8304 0005240  42.4230 345.9953 13.13780664391640
UNKNOWN                 
1 82637U          22014.40482652  .00004908  00000+0  12686-2 0  9991
2 82637  99.5259 239.7297 0031372  95.9233 264.5534 14.50164306297202
UNKNOWN                 
1 82642U          22017.01703676  .00000277  00000+0  20347-3 0  9998
2 82642  99.0114 289.3842 0139853 236.9030 121.8644 13.99418602416264
UNKNOWN                 
1 82683U 99057    22018.30894949  .00000659  00000+0  28921-3 0  9990
2 82683  98.1041 186.2814 0227308 222.1688 136.1807 14.13738162260610
UNKNOWN                 
1 82693U          22016.77736566  .00001186  00000+0  16357-2 0  9995
2 82693 100.5415 206.5104 0047278 299.8619  59.7824 13.60377245359321
UNKNOWN                 
1 82698U          22018.57444361  .00000417  00000+0  29187-3 0  9991
2 82698  61.6080 336.9633 0738549 132.1039 234.5217 13.21591100349670
UNKNOWN                 
1 82708U          22017.37372006  .00000620  00000+0  26540-2 0  9991
2 82708 102.1488  73.7235 0059637 274.2609  85.1668 12.87246310339911
UNKNOWN                 
1 82729U          22018.43876790  .00001447  00000+0  50311-2 0  9992
2 82729  67.9585  84.8193 0836669 264.0578  86.4563 12.16065250361913
